[{"OBJECT_NAME":"TOMORROW-S2","OBJECT_ID":"2024-149T","EPOCH":"2026-03-09T18:02:42.746496","MEAN_MOTION":15.30674935,"ECCENTRICITY":0.0001648,"INCLINATION":97.3857,"RA_OF_ASC_NODE":150.0385,"ARG_OF_PERICENTER":234.3331,"MEAN_ANOMALY":125.7757,"EPHEMERIS_TYPE":0,"CLASSIFICATION_TYPE":"U","NORAD_CAT_ID":60485,"ELEMENT_SET_NO":999,"REV_AT_EPOCH":8686,"BSTAR":0.00027683033,"MEAN_MOTION_DOT":8.133e-5,"MEAN_MOTION_DDOT":0},{"OBJECT_NAME":"STARLINK-34413","OBJECT_ID":"2025-137Y","EPOCH":"2026-03-09T23:17:06.295200","MEAN_MOTION":15.30212684,"ECCENTRICITY":0.00012505,"INCLINATION":53.1569,"RA_OF_ASC_NODE":334.2311,"ARG_OF_PERICENTER":126.908,"MEAN_ANOMALY":233.2035,"EPHEMERIS_TYPE":0,"CLASSIFICATION_TYPE":"U","NORAD_CAT_ID":64616,"ELEMENT_SET_NO":999,"REV_AT_EPOCH":4087,"BSTAR":0.00097160089,"MEAN_MOTION_DOT":0.00028539,"MEAN_MOTION_DDOT":0}]
